{
  "type": "FeatureCollection",
  "features": [
    {
      "type": "Feature",
      "properties": {
        "norad_id": 36046,
        "name": "COSMOS 2251 DEB",
        "group": "cosmos-2251-debris",
        "lat": -49.2168299408115,
        "lon": 129.30333889250085,
        "alt_km": 717.9841489304235,
        "timestamp": "2025-12-05T18:53:13.678756+00:00",
        "meta_object_name": "COSMOS 2251 DEB",
        "meta_object_id": "1993-036AXH",
        "meta_epoch": "2025-12-01T14:24:58.053024",
        "meta_mean_motion": 14.65147038,
        "meta_eccentricity": 0.00552553,
        "meta_inclination": 74.0167,
        "meta_ra_of_asc_node": 297.9586,
        "meta_arg_of_pericenter": 87.1353,
        "meta_mean_anomaly": 32.6466,
        "meta_ephemeris_type": 0,
        "meta_classification_type": "U",
        "meta_norad_cat_id": 36046,
        "meta_element_set_no": 999,
        "meta_rev_at_epoch": 63840,
        "meta_bstar": 0.0006286755,
        "meta_mean_motion_dot": 3.426e-05,
        "meta_mean_motion_ddot": 0,
        "tle_line1": "1 36046U 93036AXH 25335.60067191  .00003426  00000+0  62868-3 0  9995",
        "tle_line2": "2 36046  74.0167 297.9586 0055255  87.1353  32.6466 14.65147038638408"
      },
      "geometry": {
        "type": "Point",
        "coordinates": [
          129.30333889250085,
          -49.2168299408115
        ]
      }
    },
    {
      "type": "Feature",
      "properties": {
        "norad_id": 36047,
        "name": "COSMOS 2251 DEB",
        "group": "cosmos-2251-debris",
        "lat": 55.20223567229083,
        "lon": 143.8686678642361,
        "alt_km": 576.7718941802732,
        "timestamp": "2025-12-05T18:53:13.678766+00:00",
        "meta_object_name": "COSMOS 2251 DEB",
        "meta_object_id": "1993-036AXJ",
        "meta_epoch": "2025-12-05T07:06:31.972896",
        "meta_mean_motion": 14.95489109,
        "meta_eccentricity": 0.00079199,
        "meta_inclination": 74.0351,
        "meta_ra_of_asc_node": 349.1851,
        "meta_arg_of_pericenter": 15.2944,
        "meta_mean_anomaly": 344.8478,
        "meta_ephemeris_type": 0,
        "meta_classification_type": "U",
        "meta_norad_cat_id": 36047,
        "meta_element_set_no": 999,
        "meta_rev_at_epoch": 65828,
        "meta_bstar": 0.0033876209,
        "meta_mean_motion_dot": 0.00037705,
        "meta_mean_motion_ddot": 0,
        "tle_line1": "1 36047U 93036AXJ 25339.29620339  .00037705  00000+0  33876-2 0  9997",
        "tle_line2": "2 36047  74.0351 349.1851 0007919  15.2944 344.8478 14.95489109658281"
      },
      "geometry": {
        "type": "Point",
        "coordinates": [
          143.8686678642361,
          55.20223567229083
        ]
      }
    },
    {
      "type": "Feature",
      "properties": {
        "norad_id": 36048,
        "name": "COSMOS 2251 DEB",
        "group": "cosmos-2251-debris",
        "lat": 54.52640451958675,
        "lon": -24.276028496311355,
        "alt_km": 749.2088704783646,
        "timestamp": "2025-12-05T18:53:13.678776+00:00",
        "meta_object_name": "COSMOS 2251 DEB",
        "meta_object_id": "1993-036AXK",
        "meta_epoch": "2025-12-03T17:20:47.779872",
        "meta_mean_motion": 14.37824674,
        "meta_eccentricity": 0.00262269,
        "meta_inclination": 74.0561,
        "meta_ra_of_asc_node": 315.8673,
        "meta_arg_of_pericenter": 7.889,
        "meta_mean_anomaly": 169.513,
        "meta_ephemeris_type": 0,
        "meta_classification_type": "U",
        "meta_norad_cat_id": 36048,
        "meta_element_set_no": 999,
        "meta_rev_at_epoch": 85372,
        "meta_bstar": 0.00041796322,
        "meta_mean_motion_dot": 1.239e-05,
        "meta_mean_motion_ddot": 0,
        "tle_line1": "1 36048U 93036AXK 25337.72277523  .00001239  00000+0  41796-3 0  9991",
        "tle_line2": "2 36048  74.0561 315.8673 0026226   7.8890 169.5130 14.37824674853725"
      },
      "geometry": {
        "type": "Point",
        "coordinates": [
          -24.276028496311355,
          54.52640451958675
        ]
      }
    },
    {
      "type": "Feature",
      "properties": {
        "norad_id": 36049,
        "name": "COSMOS 2251 DEB",
        "group": "cosmos-2251-debris",
        "lat": -72.16497934222751,
        "lon": 69.6135662772237,
        "alt_km": 689.8558320611646,
        "timestamp": "2025-12-05T18:53:13.678786+00:00",
        "meta_object_name": "COSMOS 2251 DEB",
        "meta_object_id": "1993-036AXL",
        "meta_epoch": "2025-12-04T18:37:38.930592",
        "meta_mean_motion": 14.61967054,
        "meta_eccentricity": 0.00111967,
        "meta_inclination": 74.0296,
        "meta_ra_of_asc_node": 134.4326,
        "meta_arg_of_pericenter": 218.9459,
        "meta_mean_anomaly": 141.0902,
        "meta_ephemeris_type": 0,
        "meta_classification_type": "U",
        "meta_norad_cat_id": 36049,
        "meta_element_set_no": 999,
        "meta_rev_at_epoch": 85248,
        "meta_bstar": 0.0033771154,
        "meta_mean_motion_dot": 0.0001695,
        "meta_mean_motion_ddot": 0,
        "tle_line1": "1 36049U 93036AXL 25338.77614503  .00016950  00000+0  33771-2 0  9990",
        "tle_line2": "2 36049  74.0296 134.4326 0011196 218.9459 141.0902 14.61967054852488"
      },
      "geometry": {
        "type": "Point",
        "coordinates": [
          69.6135662772237,
          -72.16497934222751
        ]
      }
    },
    {
      "type": "Feature",
      "properties": {
        "norad_id": 36050,
        "name": "COSMOS 2251 DEB",
        "group": "cosmos-2251-debris",
        "lat": 72.6787631817588,
        "lon": -38.47168369577705,
        "alt_km": 617.2058329149822,
        "timestamp": "2025-12-05T18:53:13.678796+00:00",
        "meta_object_name": "COSMOS 2251 DEB",
        "meta_object_id": "1993-036AXM",
        "meta_epoch": "2025-12-03T08:51:43.557696",
        "meta_mean_motion": 15.00813844,
        "meta_eccentricity": 0.00890805,
        "meta_inclination": 74.0318,
        "meta_ra_of_asc_node": 213.1033,
        "meta_arg_of_pericenter": 294.9563,
        "meta_mean_anomaly": 64.2389,
        "meta_ephemeris_type": 0,
        "meta_classification_type": "U",
        "meta_norad_cat_id": 36050,
        "meta_element_set_no": 999,
        "meta_rev_at_epoch": 66894,
        "meta_bstar": 0.00068060745,
        "meta_mean_motion_dot": 9.378e-05,
        "meta_mean_motion_ddot": 0,
        "tle_line1": "1 36050U 93036AXM 25337.36925414  .00009378  00000+0  68061-3 0  9999",
        "tle_line2": "2 36050  74.0318 213.1033 0089080 294.9563  64.2389 15.00813844668944"
      },
      "geometry": {
        "type": "Point",
        "coordinates": [
          -38.47168369577705,
          72.6787631817588
        ]
      }
    },
    {
      "type": "Feature",
      "properties": {
        "norad_id": 36053,
        "name": "COSMOS 2251 DEB",
        "group": "cosmos-2251-debris",
        "lat": 18.590323755951033,
        "lon": 171.6137807050536,
        "alt_km": 706.2481609524802,
        "timestamp": "2025-12-05T18:53:13.678831+00:00",
        "meta_object_name": "COSMOS 2251 DEB",
        "meta_object_id": "1993-036AXQ",
        "meta_epoch": "2025-12-01T06:02:04.873920",
        "meta_mean_motion": 14.56926822,
        "meta_eccentricity": 0.0033176,
        "meta_inclination": 73.8721,
        "meta_ra_of_asc_node": 174.7239,
        "meta_arg_of_pericenter": 127.7081,
        "meta_mean_anomaly": 232.7098,
        "meta_ephemeris_type": 0,
        "meta_classification_type": "U",
        "meta_norad_cat_id": 36053,
        "meta_element_set_no": 999,
        "meta_rev_at_epoch": 87277,
        "meta_bstar": 0.0017117,
        "meta_mean_motion_dot": 7.72e-05,
        "meta_mean_motion_ddot": 0,
        "tle_line1": "1 36053U 93036AXQ 25335.25144530  .00007720  00000+0  17117-2 0  9994",
        "tle_line2": "2 36053  73.8721 174.7239 0033176 127.7081 232.7098 14.56926822872773"
      },
      "geometry": {
        "type": "Point",
        "coordinates": [
          171.6137807050536,
          18.590323755951033
        ]
      }
    },
    {
      "type": "Feature",
      "properties": {
        "norad_id": 36058,
        "name": "COSMOS 2251 DEB",
        "group": "cosmos-2251-debris",
        "lat": 66.79184202263927,
        "lon": -175.21012482231083,
        "alt_km": 682.6347014334178,
        "timestamp": "2025-12-05T18:53:13.678843+00:00",
        "meta_object_name": "COSMOS 2251 DEB",
        "meta_object_id": "1993-036AXV",
        "meta_epoch": "2025-12-02T21:15:38.245248",
        "meta_mean_motion": 14.58601869,
        "meta_eccentricity": 0.00452241,
        "meta_inclination": 74.0244,
        "meta_ra_of_asc_node": 52.2381,
        "meta_arg_of_pericenter": 188.8228,
        "meta_mean_anomaly": 171.2148,
        "meta_ephemeris_type": 0,
        "meta_classification_type": "U",
        "meta_norad_cat_id": 36058,
        "meta_element_set_no": 999,
        "meta_rev_at_epoch": 65967,
        "meta_bstar": 0.00090546257,
        "meta_mean_motion_dot": 4.247e-05,
        "meta_mean_motion_ddot": 0,
        "tle_line1": "1 36058U 93036AXV 25336.88585932  .00004247  00000+0  90546-3 0  9993",
        "tle_line2": "2 36058  74.0244  52.2381 0045224 188.8228 171.2148 14.58601869659675"
      },
      "geometry": {
        "type": "Point",
        "coordinates": [
          -175.21012482231083,
          66.79184202263927
        ]
      }
    }
  ]
}